NORAD_CAT_ID,OBJECT_NAME,OBJECT_TYPE,EPOCH,MEAN_MOTION,ECCENTRICITY,INCLINATION,RA_OF_ASC_NODE,ARG_OF_PERICENTER,MEAN_ANOMALY,BSTAR,MEAN_MOTION_DOT,MEAN_MOTION_DDOT,TLE_LINE0,TLE_LINE1,TLE_LINE2,SEMIMAJOR_AXIS,PERIOD,APOGEE,PERIGEE,DECAYED
52091.0,STARLINK-3713,PAYLOAD,2024-01-31 18:24:17,15.08821204,0.0001565,53.2178,296.4665,103.3191,256.7976,0.00024431,3.6e-05,0.0,0 STARLINK-3713,1 52091U 22029D   24031.76686494  .00003600  00000-0  24431-3 0  9998,2 52091  53.2178 296.4665 0001565 103.3191 256.7976 15.08821204104725,6917.938,95.439,540.885,538.72,0.0
52091.0,STARLINK-3713,PAYLOAD,2024-02-01 00:45:49,15.08831873,0.0001469,53.2172,295.278,98.8549,261.2609,6.9169e-05,8.13e-06,0.0,0 STARLINK-3713,1 52091U 22029D   24032.03182672  .00000813  00000-0  69169-4 0  9999,2 52091  53.2172 295.2780 0001469  98.8549 261.2609 15.08831873104763,6917.905,95.438,540.786,538.754,0.0
52091.0,STARLINK-3713,PAYLOAD,2024-02-01 18:15:04,15.08837922,0.0001478,53.2175,292.0052,97.2037,262.9123,6.3947e-05,7.3e-06,0.0,0 STARLINK-3713,1 52091U 22029D   24032.76046582  .00000730  00000-0  63947-4 0  9994,2 52091  53.2175 292.0052 0001478  97.2037 262.9123 15.08837922104870,6917.887,95.438,540.774,538.729,0.0
52091.0,STARLINK-3713,PAYLOAD,2024-02-02 00:36:36,15.08827776,0.0001497,53.2174,290.8158,95.1169,264.9994,0.00032365,4.865e-05,0.0,0 STARLINK-3713,1 52091U 22029D   24033.02542660  .00004865  00000-0  32365-3 0  9994,2 52091  53.2174 290.8158 0001497  95.1169 264.9994 15.08827776104915,6917.918,95.438,540.818,538.747,0.0
52091.0,STARLINK-3713,PAYLOAD,2024-02-02 21:16:37,15.08835847,0.0001417,53.2187,286.952,90.3277,269.7877,0.0001058,1.396e-05,0.0,0 STARLINK-3713,1 52091U 22029D   24033.88654823  .00001396  00000-0  10580-3 0  9994,2 52091  53.2187 286.9520 0001417  90.3277 269.7877 15.08835847105043,6917.893,95.438,540.738,538.778,0.0
52091.0,STARLINK-3713,PAYLOAD,2024-02-02 22:52:00,15.0883759,0.000161,53.2188,286.6543,100.6666,259.4507,0.00012243,1.661e-05,0.0,0 STARLINK-3713,1 52091U 22029D   24033.95278662  .00001661  00000-0  12243-3 0  9998,2 52091  53.2188 286.6543 0001610 100.6666 259.4507 15.08837590105052,6917.888,95.438,540.867,538.639,0.0
52091.0,STARLINK-3713,PAYLOAD,2024-02-03 21:07:24,15.08842558,0.0001304,53.2173,282.4893,84.3367,275.7774,4.0959e-05,3.64e-06,0.0,0 STARLINK-3713,1 52091U 22029D   24034.88014637  .00000364  00000-0  40959-4 0  9996,2 52091  53.2173 282.4893 0001304  84.3367 275.7774 15.08842558105196,6917.873,95.437,540.64,538.835,0.0
52091.0,STARLINK-3713,PAYLOAD,2024-02-03 22:42:47,15.08843407,0.0001327,53.2168,282.1914,85.1594,274.9549,4.5661e-05,4.39e-06,0.0,0 STARLINK-3713,1 52091U 22029D   24034.94638540  .00000439  00000-0  45661-4 0  9996,2 52091  53.2168 282.1914 0001327  85.1594 274.9549 15.08843407105204,6917.87,95.437,540.653,538.817,0.0
52091.0,STARLINK-3713,PAYLOAD,2024-02-04 19:22:48,15.08845541,0.0001383,53.2171,278.3249,95.1191,264.996,9.0307e-05,1.15e-05,0.0,0 STARLINK-3713,1 52091U 22029D   24035.80750150  .00001150  00000-0  90307-4 0  9992,2 52091  53.2171 278.3249 0001383  95.1191 264.9960 15.08845541105333,6917.863,95.437,540.685,538.772,0.0
52091.0,STARLINK-3713,PAYLOAD,2024-02-04 22:33:34,15.08846592,0.0001459,53.2176,277.73,102.9718,257.1437,9.5964e-05,1.24e-05,0.0,0 STARLINK-3713,1 52091U 22029D   24035.93997965  .00001240  00000-0  95964-4 0  9997,2 52091  53.2176 277.7300 0001459 102.9718 257.1437 15.08846592105357,6917.86,95.437,540.735,538.716,0.0
52091.0,STARLINK-3713,PAYLOAD,2024-02-05 01:44:20,15.08849298,0.0001421,53.217,277.1337,106.0159,254.099,0.00011654,1.568e-05,0.0,0 STARLINK-3713,1 52091U 22029D   24036.07245650  .00001568  00000-0  11654-3 0  9996,2 52091  53.2170 277.1337 0001421 106.0159 254.0990 15.08849298105376,6917.852,95.437,540.7,538.734,0.0
52091.0,STARLINK-3713,PAYLOAD,2024-02-05 20:48:58,15.08843649,0.0001541,53.217,273.5628,115.585,244.5302,2.8795e-05,1.7e-06,0.0,0 STARLINK-3713,1 52091U 22029D   24036.86734045  .00000170  00000-0  28795-4 0  9997,2 52091  53.2170 273.5628 0001541 115.5850 244.5302 15.08843649105493,6917.869,95.437,540.8,538.668,0.0
52091.0,STARLINK-3713,PAYLOAD,2024-02-06 01:35:07,15.08844256,0.0001554,53.217,272.6706,116.314,243.8012,3.0705e-05,2.01e-06,0.0,0 STARLINK-3713,1 52091U 22029D   24037.06605932  .00000201  00000-0  30705-4 0  9991,2 52091  53.2170 272.6706 0001554 116.3140 243.8012 15.08844256105524,6917.867,95.437,540.807,538.657,0.0
52091.0,STARLINK-3713,PAYLOAD,2024-02-06 22:15:08,15.08843656,0.0001443,53.2171,268.803,108.8592,251.2557,3.128e-05,2.1e-06,0.0,0 STARLINK-3713,1 52091U 22029D   24037.92717905  .00000210  00000-0  31280-4 0  9999,2 52091  53.2171 268.8030 0001443 108.8592 251.2557 15.08843656105650,6917.869,95.437,540.732,538.736,0.0
52091.0,STARLINK-3713,PAYLOAD,2024-02-07 14:09:00,15.08834875,0.0001403,53.2169,265.8344,106.6406,253.474,2.9215e-05,1.77e-06,0.0,0 STARLINK-3713,1 52091U 22029D   24038.58958596  .00000177  00000-0  29215-4 0  9992,2 52091  53.2169 265.8344 0001403 106.6406 253.4740 15.08834875105750,6917.896,95.438,540.732,538.79,0.0
52091.0,STARLINK-3713,PAYLOAD,2024-02-07 18:55:09,15.08835275,0.0001536,53.217,264.9416,116.7578,243.3572,-1.0946e-05,-4.62e-06,0.0,0 STARLINK-3713,1 52091U 22029D   24038.78830735 -.00000462  00000-0 -10946-4 0  9998,2 52091  53.2170 264.9416 0001536 116.7578 243.3572 15.08835275105780,6917.895,95.438,540.822,538.697,0.0
52091.0,STARLINK-3713,PAYLOAD,2024-02-07 22:05:56,15.0883697,0.0001172,53.2158,264.3481,92.9202,267.1924,-3.345e-05,-8.2e-06,0.0,0 STARLINK-3713,1 52091U 22029D   24038.92078757 -.00000820  00000-0 -33450-4 0  9995,2 52091  53.2158 264.3481 0001172  92.9202 267.1924 15.08836970105808,6917.89,95.438,540.565,538.944,0.0
52091.0,STARLINK-3713,PAYLOAD,2024-02-08 07:38:14,15.08838599,0.0001185,53.2159,262.5635,96.0307,264.082,-2.3946e-05,-6.69e-06,0.0,0 STARLINK-3713,1 52091U 22029D   24039.31822728 -.00000669  00000-0 -23946-4 0  9994,2 52091  53.2159 262.5635 0001185  96.0307 264.0820 15.08838599105861,6917.885,95.438,540.569,538.93,0.0
52091.0,STARLINK-3713,PAYLOAD,2024-02-08 20:21:19,15.08833285,0.0001202,53.2155,260.184,91.3705,268.7425,0.00014911,2.086e-05,0.0,0 STARLINK-3713,1 52091U 22029D   24039.84814779  .00002086  00000-0  14911-3 0  9993,2 52091  53.2155 260.1840 0001202  91.3705 268.7425 15.08833285105947,6917.901,95.438,540.597,538.934,0.0
52091.0,STARLINK-3713,PAYLOAD,2024-02-08 21:56:43,15.08806753,0.0001434,53.216,259.8871,95.0846,265.031,0.00056648,8.731e-05,0.0,0 STARLINK-3713,1 52091U 22029D   24039.91439188  .00008731  00000-0  56648-3 0  9994,2 52091  53.2160 259.8871 0001434  95.0846 265.0310 15.08806753105950,6917.982,95.44,540.839,538.855,0.0
52091.0,STARLINK-3713,PAYLOAD,2024-02-08 23:32:05,15.08843491,0.0001313,53.2166,259.5904,91.0926,269.0216,0.00010068,1.315e-05,0.0,0 STARLINK-3713,1 52091U 22029D   24039.98062352  .00001315  00000-0  10068-3 0  9993,2 52091  53.2166 259.5904 0001313  91.0926 269.0216 15.08843491105961,6917.87,95.437,540.643,538.826,0.0
52091.0,STARLINK-3713,PAYLOAD,2024-02-09 20:12:07,15.08833158,0.000142,53.2169,255.7225,88.1205,271.9949,4.8403e-05,4.82e-06,0.0,0 STARLINK-3713,1 52091U 22029D   24040.84175516  .00000482  00000-0  48403-4 0  9996,2 52091  53.2169 255.7225 0001420  88.1205 271.9949 15.08833158106093,6917.901,95.438,540.749,538.784,0.0
52091.0,STARLINK-3713,PAYLOAD,2024-02-09 23:22:53,15.08836126,0.0001325,53.2162,255.1281,85.6069,274.5074,6.8278e-05,7.99e-06,0.0,0 STARLINK-3713,1 52091U 22029D   24040.97423304  .00000799  00000-0  68278-4 0  9994,2 52091  53.2162 255.1281 0001325  85.6069 274.5074 15.08836126106115,6917.892,95.438,540.674,538.841,0.0
52091.0,STARLINK-3713,PAYLOAD,2024-02-10 20:02:54,15.08847006,0.000135,53.2164,251.261,97.1594,262.9551,5.6569e-05,6.13e-06,0.0,0 STARLINK-3713,1 52091U 22029D   24041.83534777  .00000613  00000-0  56569-4 0  9992,2 52091  53.2164 251.2610 0001350  97.1594 262.9551 15.08847006106243,6917.859,95.437,540.658,538.79,0.0
52091.0,STARLINK-3713,PAYLOAD,2024-02-10 21:38:17,15.08847364,0.0001329,53.2166,250.9641,91.1767,268.9377,8.037e-05,9.92e-06,0.0,0 STARLINK-3713,1 52091U 22029D   24041.90158704  .00000992  00000-0  80370-4 0  9999,2 52091  53.2166 250.9641 0001329  91.1767 268.9377 15.08847364106257,6917.858,95.437,540.642,538.803,0.0
52091.0,STARLINK-3713,PAYLOAD,2024-02-11 13:32:08,15.08845751,0.000154,53.2167,247.9939,76.2659,283.8505,0.00011157,1.488e-05,0.0,0 STARLINK-3713,1 52091U 22029D   24042.56398771  .00001488  00000-0  11157-3 0  9999,2 52091  53.2167 247.9939 0001540  76.2659 283.8505 15.08845751106351,6917.863,95.437,540.793,538.662,0.0
52091.0,STARLINK-3713,PAYLOAD,2024-02-11 19:53:40,15.08847186,0.0001532,53.2165,246.8045,76.7894,283.3269,0.00011757,1.584e-05,0.0,0 STARLINK-3713,1 52091U 22029D   24042.82894586  .00001584  00000-0  11757-3 0  9996,2 52091  53.2165 246.8045 0001532  76.7894 283.3269 15.08847186106392,6917.858,95.437,540.783,538.664,0.0
52091.0,STARLINK-3713,PAYLOAD,2024-02-12 13:22:55,15.08845225,0.0001499,53.2161,243.5347,78.7932,281.3228,3.6076e-05,2.86e-06,0.0,0 STARLINK-3713,1 52091U 22029D   24043.55758847  .00000286  00000-0  36076-4 0  9996,2 52091  53.2161 243.5347 0001499  78.7932 281.3228 15.08845225106502,6917.864,95.437,540.766,538.692,0.0
52091.0,STARLINK-3713,PAYLOAD,2024-02-12 19:44:28,15.08842141,0.0001337,53.216,242.344,91.8635,268.251,-3.2583e-06,-3.4e-06,0.0,0 STARLINK-3713,1 52091U 22029D   24043.82254925 -.00000340  00000-0 -32583-5 0  9997,2 52091  53.2160 242.3440 0001337  91.8635 268.2510 15.08842141106545,6917.874,95.437,540.664,538.814,0.0
52091.0,STARLINK-3713,PAYLOAD,2024-02-13 19:35:15,15.08837724,0.0001515,53.2169,237.883,117.2866,242.8281,-5.1181e-06,-3.69e-06,0.0,0 STARLINK-3713,1 52091U 22029D   24044.81615092 -.00000369  00000-0 -51181-5 0  9999,2 52091  53.2169 237.8830 0001515 117.2866 242.8281 15.08837724106693,6917.887,95.438,540.8,538.704,0.0
